NORAD_CAT_ID,OBJECT_NAME,OBJECT_TYPE,EPOCH,MEAN_MOTION,ECCENTRICITY,INCLINATION,RA_OF_ASC_NODE,ARG_OF_PERICENTER,MEAN_ANOMALY,BSTAR,MEAN_MOTION_DOT,MEAN_MOTION_DDOT,TLE_LINE0,TLE_LINE1,TLE_LINE2,SEMIMAJOR_AXIS,PERIOD,APOGEE,PERIGEE,DECAYED
52562.0,STARLINK-3957,PAYLOAD,2023-02-04 13:53:50,15.08851764,0.0001385,53.2168,147.8994,100.7126,259.4022,0.00034412,5.195e-05,0.0,0 STARLINK-3957,1 52562U 22051AF  23035.57906215  .00005195  00000-0  34412-3 0  9995,2 52562  53.2168 147.8994 0001385 100.7126 259.4022 15.08851764 41120,6917.844,95.437,540.668,538.751,0.0
52562.0,STARLINK-3957,PAYLOAD,2023-02-04 17:04:37,15.08854999,0.0001409,53.2167,147.3044,101.5423,258.5727,0.00038762,5.889e-05,0.0,0 STARLINK-3957,1 52562U 22051AF  23035.71154033  .00005889  00000-0  38762-3 0  9996,2 52562  53.2167 147.3044 0001409 101.5423 258.5727 15.08854999 41143,6917.835,95.437,540.674,538.725,0.0
52562.0,STARLINK-3957,PAYLOAD,2023-02-05 13:44:38,15.0884481,0.0001123,53.2172,143.4393,105.4689,254.6427,0.0001764,2.521e-05,0.0,0 STARLINK-3957,1 52562U 22051AF  23036.57266478  .00002521  00000-0  17640-3 0  9990,2 52562  53.2172 143.4393 0001123 105.4689 254.6427 15.08844810 41340,6917.866,95.437,540.508,538.954,0.0
52562.0,STARLINK-3957,PAYLOAD,2023-02-05 16:55:24,15.08847494,0.0001119,53.2172,142.8444,107.0378,253.0736,0.00022464,3.29e-05,0.0,0 STARLINK-3957,1 52562U 22051AF  23036.70514370  .00003290  00000-0  22464-3 0  9996,2 52562  53.2172 142.8444 0001119 107.0378 253.0736 15.08847494 41299,6917.857,95.437,540.497,538.948,0.0
52562.0,STARLINK-3957,PAYLOAD,2023-02-06 12:00:02,15.08847664,0.0001108,53.2172,139.2763,97.696,262.4158,0.00026832,3.986e-05,0.0,0 STARLINK-3957,1 52562U 22051AF  23037.50002419  .00003986  00000-0  26832-3 0  9996,2 52562  53.2172 139.2763 0001108  97.6960 262.4158 15.08847664 41417,6917.857,95.437,540.488,538.955,0.0
52562.0,STARLINK-3957,PAYLOAD,2023-02-06 16:46:11,15.08860277,0.0001254,53.2177,138.3839,90.8759,269.2376,0.00060831,9.412e-05,0.0,0 STARLINK-3957,1 52562U 22051AF  23037.69874049  .00009412  00000-0  60831-3 0  9999,2 52562  53.2177 138.3839 0001254  90.8759 269.2376 15.08860277 41512,6917.818,95.436,540.551,538.816,0.0
52562.0,STARLINK-3957,PAYLOAD,2023-02-06 23:07:43,15.08855585,0.000121,53.2185,137.194,69.0425,291.0696,0.00052664,8.107e-05,0.0,0 STARLINK-3957,1 52562U 22051AF  23037.96370151  .00008107  00000-0  52664-3 0  9999,2 52562  53.2185 137.1940 0001210  69.0425 291.0696 15.08855585 41559,6917.833,95.437,540.535,538.861,0.0
52562.0,STARLINK-3957,PAYLOAD,2023-02-07 11:50:48,15.08855237,9.91e-05,53.2153,134.8174,102.7348,257.3755,0.00036941,5.599e-05,0.0,0 STARLINK-3957,1 52562U 22051AF  23038.49361698  .00005599  00000-0  36941-3 0  9996,2 52562  53.2153 134.8174 0000991 102.7348 257.3755 15.08855237 41567,6917.834,95.437,540.384,539.013,0.0
52562.0,STARLINK-3957,PAYLOAD,2023-02-07 16:36:57,15.08874961,7.76e-05,53.2164,133.9229,111.9608,248.1467,0.0009313,0.00014579,0.0,0 STARLINK-3957,1 52562U 22051AF  23038.69232939  .00014579  00000-0  93130-3 0  9994,2 52562  53.2164 133.9229 0000776 111.9608 248.1467 15.08874961 41598,6917.774,95.435,540.175,539.102,0.0
52562.0,STARLINK-3957,PAYLOAD,2023-02-07 22:58:28,15.08896215,0.0001068,53.2161,132.7356,74.0564,286.0545,0.0014822,0.00023416,0.0,0 STARLINK-3957,1 52562U 22051AF  23038.95727953  .00023416  00000-0  14822-2 0  9998,2 52562  53.2161 132.7356 0001068  74.0564 286.0545 15.08896215 41705,6917.709,95.434,540.312,538.835,0.0
52562.0,STARLINK-3957,PAYLOAD,2023-02-08 13:16:56,15.08843381,0.0001321,53.2165,130.0592,80.3253,279.7888,-0.0013302,-0.00021397,0.0,0 STARLINK-3957,1 52562U 22051AF  23039.55343345 -.00021397  00000-0 -13302-2 0  9994,2 52562  53.2165 130.0592 0001321  80.3253 279.7888 15.08843381 41793,6917.87,95.437,540.649,538.821,0.0
52562.0,STARLINK-3957,PAYLOAD,2023-02-08 18:03:06,15.08833624,0.0001268,53.2171,129.1669,51.4497,308.6609,-0.00097248,-0.00015729,0.0,0 STARLINK-3957,1 52562U 22051AF  23039.75215418 -.00015729  00000-0 -97248-3 0  9999,2 52562  53.2171 129.1669 0001268  51.4497 308.6609 15.08833624 41751,6917.9,95.438,540.642,538.888,0.0
52562.0,STARLINK-3957,PAYLOAD,2023-02-09 06:46:13,15.08794664,0.0001315,53.2156,126.79,75.6573,284.4565,-0.00071138,-0.00011577,0.0,0 STARLINK-3957,1 52562U 22051AF  23040.28209497 -.00011577  00000-0 -71138-3 0  9996,2 52562  53.2156 126.7900 0001315  75.6573 284.4565 15.08794664 41900,6918.019,95.44,540.794,538.974,0.0
52562.0,STARLINK-3957,PAYLOAD,2023-02-09 11:32:23,15.08796831,0.0001632,53.2147,125.8978,82.7361,277.3816,1.7783e-05,-5e-08,0.0,0 STARLINK-3957,1 52562U 22051AF  23040.48082185 -.00000005  00000-0  17783-4 0  9991,2 52562  53.2147 125.8978 0001632  82.7361 277.3816 15.08796831 41864,6918.012,95.44,541.006,538.748,0.0
52562.0,STARLINK-3957,PAYLOAD,2023-02-09 13:07:46,15.08804416,0.0001717,53.2154,125.5984,73.5475,286.5706,0.00056848,8.762e-05,0.0,0 STARLINK-3957,1 52562U 22051AF  23040.54706478  .00008762  00000-0  56848-3 0  9997,2 52562  53.2154 125.5984 0001717  73.5475 286.5706 15.08804416 41942,6917.989,95.44,541.042,538.666,0.0
52562.0,STARLINK-3957,PAYLOAD,2023-02-09 22:40:05,15.08815066,0.0001656,53.2151,123.8156,89.3314,270.7868,0.0012357,0.00019419,0.0,0 STARLINK-3957,1 52562U 22051AF  23040.94451288  .00019419  00000-0  12357-2 0  9994,2 52562  53.2151 123.8156 0001656  89.3314 270.7868 15.08815066 41936,6917.957,95.439,540.967,538.676,0.0
52562.0,STARLINK-3957,PAYLOAD,2023-02-10 12:58:34,15.08854316,0.0001826,53.2148,121.1418,82.3869,277.733,0.0019029,0.00030139,0.0,0 STARLINK-3957,1 52562U 22051AF  23041.54067460  .00030139  00000-0  19029-2 0  9991,2 52562  53.2148 121.1418 0001826  82.3869 277.7330 15.08854316 42091,6917.837,95.437,540.965,538.438,0.0
52562.0,STARLINK-3957,PAYLOAD,2023-02-10 22:30:53,15.08850897,0.000162,53.2153,119.3532,90.9681,269.1497,0.0012289,0.0001933,0.0,0 STARLINK-3957,1 52562U 22051AF  23041.93811507  .00019330  00000-0  12289-2 0  9994,2 52562  53.2153 119.3532 0001620  90.9681 269.1497 15.08850897 42158,6917.847,95.437,540.833,538.591,0.0
52562.0,STARLINK-3957,PAYLOAD,2023-02-11 09:38:35,15.08829788,9.2e-05,53.2152,117.2728,97.9354,262.1742,0.00082623,0.00012882,0.0,0 STARLINK-3957,1 52562U 22051AF  23042.40179744  .00012882  00000-0  82623-3 0  9992,2 52562  53.2152 117.2728 0000920  97.9354 262.1742 15.08829788 42158,6917.912,95.438,540.413,539.14,0.0
52562.0,STARLINK-3957,PAYLOAD,2023-02-11 22:21:40,15.08854523,0.0001214,53.2145,114.8961,81.4982,278.6147,0.0013117,0.00020658,0.0,0 STARLINK-3957,1 52562U 22051AF  23042.93171684  .00020658  00000-0  13117-2 0  9996,2 52562  53.2145 114.8961 0001214  81.4982 278.6147 15.08854523 42307,6917.836,95.437,540.541,538.861,0.0
52562.0,STARLINK-3957,PAYLOAD,2023-02-12 04:43:13,15.08840973,0.0001979,53.214,113.7029,118.8743,241.2448,0.0013607,0.00021435,0.0,0 STARLINK-3957,1 52562U 22051AF  23043.19667890  .00021435  00000-0  13607-2 0  9992,2 52562  53.2140 113.7029 0001979 118.8743 241.2448 15.08840973 42341,6917.877,95.437,541.111,538.373,0.0
52562.0,STARLINK-3957,PAYLOAD,2023-02-12 11:04:45,15.08858689,0.0001835,53.2132,112.5142,112.5293,247.5894,0.0011669,0.00018342,0.0,0 STARLINK-3957,1 52562U 22051AF  23043.46163541  .00018342  00000-0  11669-2 0  9995,2 52562  53.2132 112.5142 0001835 112.5293 247.5894 15.08858689 42311,6917.823,95.436,540.958,538.419,0.0
52562.0,STARLINK-3957,PAYLOAD,2023-02-13 04:33:59,15.08854714,0.0001146,53.2164,109.2431,106.526,253.5859,0.0011965,0.00018813,0.0,0 STARLINK-3957,1 52562U 22051AF  23044.19027698  .00018813  00000-0  11965-2 0  9990,2 52562  53.2164 109.2431 0001146 106.5260 253.5859 15.08854714 42494,6917.835,95.437,540.493,538.908,0.0
52562.0,STARLINK-3957,PAYLOAD,2023-02-13 10:55:32,15.08852199,7.18e-05,53.216,108.0553,80.0872,280.0202,0.00091235,0.00014267,0.0,0 STARLINK-3957,1 52562U 22051AF  23044.45523606  .00014267  00000-0  91235-3 0  9997,2 52562  53.2160 108.0553 0000718  80.0872 280.0202 15.08852199 42460,6917.843,95.437,540.205,539.211,0.0
52562.0,STARLINK-3957,PAYLOAD,2023-02-14 02:49:24,15.08844756,5.18e-05,53.2148,105.079,51.2885,308.8154,0.00061836,9.568e-05,0.0,0 STARLINK-3957,1 52562U 22051AF  23045.11764077  .00009568  00000-0  61836-3 0  9992,2 52562  53.2148 105.0790 0000518  51.2885 308.8154 15.08844756 42632,6917.866,95.437,540.089,539.373,0.0
52562.0,STARLINK-3957,PAYLOAD,2023-02-14 10:46:19,15.08850584,7.87e-05,53.2157,103.5933,107.9272,252.1806,0.0017523,0.00027718,0.0,0 STARLINK-3957,1 52562U 22051AF  23045.44883980  .00027718  00000-0  17523-2 0  9993,2 52562  53.2157 103.5933 0000787 107.9272 252.1806 15.08850584 42610,6917.848,95.437,540.257,539.169,0.0
52562.0,STARLINK-3957,PAYLOAD,2023-02-15 09:01:43,15.08845684,0.0001488,53.2176,99.4321,109.7066,250.4087,0.00034194,5.159e-05,0.0,0 STARLINK-3957,1 52562U 22051AF  23046.37619891  .00005159  00000-0  34194-3 0  9993,2 52562  53.2176  99.4321 0001488 109.7066 250.4087 15.08845684 42825,6917.863,95.437,540.757,538.699,0.0
52562.0,STARLINK-3957,PAYLOAD,2023-02-15 13:47:52,15.08859879,0.0001155,53.2166,98.5379,89.3701,270.7424,0.00084737,0.00013231,0.0,0 STARLINK-3957,1 52562U 22051AF  23046.57491514  .00013231  00000-0  84737-3 0  9993,2 52562  53.2166  98.5379 0001155  89.3701 270.7424 15.08859879 42783,6917.82,95.436,540.484,538.886,0.0
52562.0,STARLINK-3957,PAYLOAD,2023-02-15 20:09:25,15.0883908,0.0001006,53.2157,97.3473,97.063,263.0477,0.00019267,2.78e-05,0.0,0 STARLINK-3957,1 52562U 22051AF  23046.83987980  .00002780  00000-0  19267-3 0  9992,2 52562  53.2157  97.3473 0001006  97.0630 263.0477 15.08839080 42894,6917.883,95.438,540.444,539.052,0.0
52562.0,STARLINK-3957,PAYLOAD,2023-02-16 12:03:16,15.08861729,0.0001408,53.2163,94.3746,101.0873,259.0278,0.0012981,0.00020444,0.0,0 STARLINK-3957,1 52562U 22051AF  23047.50227646  .00020444  00000-0  12981-2 0  9995,2 52562  53.2163  94.3746 0001408 101.0873 259.0278 15.08861729 42992,6917.814,95.436,540.653,538.705,0.0
